EUTELSAT 8 WEST B       
1 40875U 15039B   25363.18078486 -.00000044  00000+0  00000+0 0  9990
2 40875   0.0670  17.5345 0004172 260.6875 236.7431  1.00271539 37950
EUTELSAT 9B             
1 41310U 16005A   25363.18407822  .00000083  00000+0  00000+0 0  9991
2 41310   0.0348  56.4530 0004869 220.7197 255.9648  1.00270467 36414
EUTELSAT 65 WEST A      
1 41382U 16014A   25362.88413186 -.00000254  00000+0  00000+0 0  9997
2 41382   0.0467 354.9248 0002516 286.6334  69.1335  1.00269930 35823
EUTELSAT 117 WEST B     
1 41589U 16038B   25362.94514558  .00000011  00000+0  00000+0 0  9994
2 41589   0.0109 155.9244 0000336 252.9921 271.9860  1.00271044 34954
EUTELSAT 172B           
1 42741U 17029B   25363.07359122  .00000016  00000+0  00000+0 0  9990
2 42741   0.0389 159.8655 0000231  54.2258  82.1736  1.00270232 32022
EUTELSAT 7C             
1 44334U 19034B   25362.18510236  .00000070  00000+0  00000+0 0  9994
2 44334   0.0728 179.2505 0003354  81.6763 269.5862  1.00270336  5120
EUTELSAT 5 WEST B       
1 44624U 19067A   25362.93655829 -.00000020  00000+0  00000+0 0  9999
2 44624   0.0688 332.7198 0003230 309.4257 147.6593  1.00273201 22730
EUTELSAT KONNECT        
1 45027U 20005B   25362.39896869  .00000071  00000+0  00000+0 0  9997
2 45027   0.0692  94.1268 0001663 184.2569 329.5555  1.00268990 22629
